UNKNOWN                 
1 81779U          26071.39117640  .00002222  00000+0  15337+0 0  9994
2 81779  54.5036  75.7498 1442005 131.6877 241.6617  9.33715242488694
UNKNOWN                 
1 81792U          26074.17853333  .00001705  00000+0  61824-3 0  9995
2 81792  65.8298 248.0765 0894888 241.6359 109.1649 13.11361261 92156
UNKNOWN                 
1 81812U          26073.54905916  .00008731  00000+0  57642-1 0  9990
2 81812 103.8013   2.0122 0297738  73.2219 290.1277 12.38308565551926
UNKNOWN                 
1 81816U          26071.99071917  .00000694  00000+0  55985-3 0  9996
2 81816  66.2372  71.0645 0172286 197.0499 162.4743 13.89758331621880
UNKNOWN                 
1 81819U          26072.50025958  .00000866  00000+0  61584-2 0  9993
2 81819 102.1688 175.9365 0032530 297.9406  61.8369 12.47859495559333
UNKNOWN                 
1 81824U          26071.46955217  .00004733  00000+0  16181-2 0  9993
2 81824  65.8421  92.0941 0049518 289.9683  69.6082 14.36493328637479
UNKNOWN                 
1 81833U          26074.53759024  .00000219  00000+0  76534-3 0  9996
2 81833  90.2477   4.9527 0027141 135.6595 224.6704 12.93767998464516
UNKNOWN                 
1 81838U          26065.93198117  .00008849  00000+0  19027-2 0  9995
2 81838  67.7611  45.9900 0044901 288.9362 100.9660 14.58249515645608
UNKNOWN                 
1 81844U          26070.35228857  .00010009  00000+0  35067-2 0  9992
2 81844  82.9126 209.8735 0060714 239.5881 119.9299 14.33972197635586
UNKNOWN                 
1 81845U          26072.47399866  .00002611  00000+0  28698-3 0  9990
2 81845  97.6784 261.2619 0086953   7.2494  22.9785 14.85741865662997
UNKNOWN                 
1 81864U          26066.44840827  .00001157  00000+0  45930-3 0  9991
2 81864  65.6676 228.8005 0768452 336.6253  20.1508 13.32766957562121
UNKNOWN                 
1 81865U          26074.41033859  .00001096  00000+0  88862-3 0  9990
2 81865  82.8054 317.1309 0062698  99.5814  23.5914 13.88289181621404
